ONEWEB-0386             
1 49312U 21090AK  22107.58334491 -.00004571  00000+0 -46266-3 0  9995
2 49312  87.2106 227.9080 0001756  44.7922  65.7842 14.91314383  3563
ONEWEB-0387             
1 49313U 21090AL  22107.58334491 -.00008403  00000+0 -84872-3 0  9999
2 49313  87.2105 227.9046 0003962  53.7097 278.5045 14.91304274  3544
ONEWEB-0388             
1 49314U 21090AM  22107.58334491 -.00032056  00000+0 -80373-1 0  9991
2 49314  87.9178 247.3305 0001635 102.1108 116.0129 13.19735432  3309
ONEWEB-0389             
1 50469U 21132A   22107.58334491  .00004913  00000+0  47845-3 0  9999
2 50469  87.2160 316.9019 0001270 173.4787 202.7738 14.92328721 17978
ONEWEB-0390             
1 50470U 21132B   22107.58334491  .00001456  00000+0  13983-3 0  9996
2 50470  87.2208 316.9544 0000542  10.5446 169.8013 14.92344047 17967
ONEWEB-0391             
1 50471U 21132C   22107.58334491  .00003250  00000+0  31548-3 0  9998
2 50471  87.2146 316.8758 0000681  63.1501  43.9464 14.92348153 17970
ONEWEB-0392             
1 50472U 21132D   22107.58334491  .00002003  00000+0  19340-3 0  9990
2 50472  87.2197 316.9413 0002301 153.7406 108.1710 14.92342265 17973
ONEWEB-0393             
1 50473U 21132E   22107.58334491  .00001025  00000+0  97579-4 0  9995
2 50473  87.2183 316.9139 0001720 168.8789  34.0071 14.92359270  3559
ONEWEB-0394             
1 50474U 21132F   22107.58334491  .00003064  00000+0  29734-3 0  9998
2 50474  87.2214 316.9730 0001343  30.8014 253.4860 14.92342132  3576
ONEWEB-0395             
1 50475U 21132G   22107.58334491  .00014785  00000+0  14422-1 0  9997
2 50475  87.9103 323.4341 0015200 288.6762 170.5929 13.79084938  3400
ONEWEB-0396             
1 50476U 21132H   22107.58334491  .00004673  00000+0  45494-3 0  9998
2 50476  87.2240 317.0154 0003064 160.3101 250.5553 14.92328003  3553
ONEWEB-0397             
1 50477U 21132J   22107.58334491  .00001796  00000+0  17316-3 0  9994
2 50477  87.2257 317.0219 0000181   0.0580 248.8234 14.92353145  3542
ONEWEB-0398             
1 50478U 21132K   22107.58334491  .00000013  00000+0  00000+0 0  9994
2 50478  87.9600 323.5890 0019641 295.5267 169.2595 13.39546546  3380
ONEWEB-0399             
1 50479U 21132L   22107.58334491  .00000013  00000+0  00000+0 0  9995
2 50479  87.9991 323.5845 0018539 295.4103 152.1833 13.41174786  3389
ONEWEB-0400             
1 50480U 21132M   22107.58334491  .00001621  00000+0  15582-3 0  9998
2 50480  87.2200 316.9316 0001532 129.3611  40.5513 14.92382307  3551
ONEWEB-0401             
1 50481U 21132N   22107.58334491  .00004810  00000+0  46857-3 0  9991
2 50481  87.2221 316.9812 0001301  45.7680 355.1908 14.92307516  3571
ONEWEB-0402             
1 50482U 21132P   22107.58334491  .00001699  00000+0  16353-3 0  9992
2 50482  87.2230 316.9866 0000817  43.4882 128.4838 14.92363577  3562
ONEWEB-0403             
1 50483U 21132Q   22107.58334491  .00001493  00000+0  14341-3 0  9990
2 50483  87.2205 316.9519 0002456  71.6969 171.0677 14.92364452  3557
ONEWEB-0404             
1 50484U 21132R   22107.58334491  .00015031  00000+0  14333-1 0  9993
2 50484  87.8862 323.3676 0018653 287.5949  55.8596 13.80396335  3405
ONEWEB-0405             
1 50485U 21132S   22107.58334491  .00003334  00000+0  32367-3 0  9996
2 50485  87.2978 317.7121 0003060 142.2041  15.8761 14.92353096  3564
ONEWEB-0406             
1 50486U 21132T   22107.58334491  .00004207  00000+0  40884-3 0  9990
2 50486  87.2245 317.0083 0002994 168.4700 266.7127 14.92369250  3572
ONEWEB-0407             
1 50487U 21132U   22107.58334491  .00004464  00000+0  43443-3 0  9990
2 50487  87.2166 316.9015 0003417 144.4172 180.4471 14.92332524  3563
ONEWEB-0409             
1 50488U 21132V   22107.58334491  .00000013  00000+0  00000+0 0  9995
2 50488  87.9540 323.6225 0020039 294.6174   2.0564 13.36799203  3395
ONEWEB-0412             
1 50489U 21132W   22107.58334491  .00001506  00000+0  14467-3 0  9990
2 50489  87.2214 316.9742 0001335 143.6298  34.3240 14.92370580  3568
ONEWEB-0413             
1 50490U 21132X   22107.58334491  .00001733  00000+0  16680-3 0  9993
2 50490  87.2157 316.8709 0001105 349.1628 269.9491 14.92381915  3572
ONEWEB-0414             
1 50491U 21132Y   22107.58334491  .00003834  00000+0  37253-3 0  9997
2 50491  87.2198 316.9456 0003415 158.3258 145.8737 14.92354268  3546
ONEWEB-0417             
1 50492U 21132Z   22107.58334491  .00005159  00000+0  50249-3 0  9990
2 50492  87.2225 316.9905 0003580 164.0415 202.4818 14.92328045  3554
ONEWEB-0418             
1 50493U 21132AA  22107.58334491  .00001970  00000+0  19030-3 0  9991
2 50493  87.2266 317.0467 0000560 257.3674 354.7890 14.92323304  3546
ONEWEB-0419             
1 50494U 21132AB  22107.58334491  .00003327  00000+0  32297-3 0  9990
2 50494  87.2143 316.8750 0003635 151.7726 310.3826 14.92350766  3565
ONEWEB-0420             
1 50495U 21132AC  22107.58334491  .00003361  00000+0  32623-3 0  9992
2 50495  87.2087 316.7931 0001318  16.4648  80.8149 14.92359997  3572
ONEWEB-0421             
1 50496U 21132AD  22107.58334491  .00004892  00000+0  47611-3 0  9996
2 50496  87.2121 316.8331 0002384  40.4259 318.4998 14.92349104  3544
ONEWEB-0424             
1 50497U 21132AE  22107.58334491  .00018959  00000+0  18513-2 0  9994
2 50497  87.2297 317.0767 0001805 163.0208  89.9407 14.92309788  3558
ONEWEB-0426             
1 50498U 21132AF  22107.58334491  .00001478  00000+0  14203-3 0  9996
2 50498  87.2169 316.8982 0002054 107.9026 140.7298 14.92334470  3544
ONEWEB-0427             
1 50499U 21132AG  22107.58334491  .00003031  00000+0  29366-3 0  9990
2 50499  87.2098 316.8098 0003334 116.0959 355.1620 14.92386349  3567
ONEWEB-0429             
1 50500U 21132AH  22107.58334491  .00001393  00000+0  13359-3 0  9997
2 50500  87.2138 316.8406 0001633  26.6070 224.4387 14.92357541  3568
ONEWEB-0430             
1 50501U 21132AJ  22107.58334491  .00001994  00000+0  19238-3 0  9997
2 50501  87.2270 317.0525 0002572 152.0542  10.1624 14.92362562  3576
ONEWEB-0432             
1 50502U 21132AK  22107.58334491  .00003474  00000+0  33732-3 0  9998
2 50502  87.2117 316.8367 0001193 326.6192 129.2919 14.92356843  3569
ONEWEB-0440             
1 50503U 21132AL  22107.58334491  .00001408  00000+0  13508-3 0  9993
2 50503  87.2156 316.8734 0001114  40.0563 133.9640 14.92369482  3569
ONEWEB-0450             
1 50504U 21132AM  22107.58334491  .00005068  00000+0  49376-3 0  9992
2 50504  87.2246 317.0178 0001448 141.4748 244.0110 14.92314155  3570
ONEWEB-0410             
1 51622U 22012A   22107.58334491  .00048793  00000+0  45990-2 0  9991
2 51622  87.1867 338.3001 0001484 115.8685   5.0254 14.93579399  3574
ONEWEB-0411             
1 51623U 22012B   22107.58334491 -.00989388  00000+0 -51590+0 0  9998
2 51623  87.5382 340.3794 0018623  32.8404  87.2724 14.17747228  3515
ONEWEB-0415             
1 51624U 22012C   22107.58334491 -.01061651  00000+0 -54900+0 0  9992
2 51624  87.5330 340.3842 0018854  31.7656 225.6930 14.18428473  3512
ONEWEB-0416             
1 51625U 22012D   22107.58334491 -.01087344  00000+0 -52583+0 0  9995
2 51625  87.5658 340.3723 0016502  30.5844 327.8130 14.22099156  3499
ONEWEB-0422             
1 51626U 22012E   22107.58334491  .00048643  00000+0  45788-2 0  9994
2 51626  87.2434 338.6450 0004618  97.5917 226.2483 14.93626783  3577
ONEWEB-0423             
1 51627U 22012F   22107.58334491  .00048850  00000+0  46030-2 0  9996
2 51627  87.1880 338.3143 0002774  99.9203  18.6385 14.93589335  3567
ONEWEB-0425             
1 51628U 22012G   22107.58334491 -.01052394  00000+0 -50523+0 0  9997
2 51628  87.5612 340.3737 0015465  14.5223  59.5795 14.22377580  3516
ONEWEB-0428             
1 51629U 22012H   22107.58334491 -.01080725  00000+0 -56606+0 0  9995
2 51629  87.5363 340.3782 0017614  31.8632  23.7228 14.17819059  3491
ONEWEB-0431             
1 51630U 22012J   22107.58334491 -.01045499  00000+0 -47123+0 0  9990
2 51630  87.5663 340.3584 0016541  17.2614 225.2525 14.25659704  3523
ONEWEB-0434             
1 51631U 22012K   22107.58334491 -.01062278  00000+0 -51861+0 0  9999
2 51631  87.5508 340.3836 0014652  14.4048  29.0950 14.21529063  3514
ONEWEB-0435             
1 51632U 22012L   22107.58334491 -.01080329  00000+0 -54796+0 0  9997
2 51632  87.5417 340.3827 0017526  29.6826 330.4779 14.19535099  3509
ONEWEB-0436             
1 51633U 22012M   22107.58334491  .00048281  00000+0  45470-2 0  9998
2 51633  87.1846 338.2872 0001152  63.3420 172.8934 14.93615548  3557
ONEWEB-0438             
1 51634U 22012N   22107.58334491 -.01060753  00000+0 -50298+0 0  9991
2 51634  87.5676 340.3614 0018644  27.2156 335.4075 14.23028725  3517
ONEWEB-0439             
1 51635U 22012P   22107.58334491 -.01062746  00000+0 -51805+0 0  9991
2 51635  87.5579 340.3672 0014616  11.7388  95.2359 14.21611441  3487
ONEWEB-0442             
1 51636U 22012Q   22107.58334491  .00047762  00000+0  44974-2 0  9992
2 51636  87.1826 338.2656 0004096 102.0209 193.9442 14.93619030  3563
ONEWEB-0443             
1 51637U 22012R   22107.58334491  .00048352  00000+0  45536-2 0  9994
2 51637  87.1846 338.2885 0001346 133.2128  99.7396 14.93615262  3543
ONEWEB-0444             
1 51638U 22012S   22107.58334491 -.01075132  00000+0 -51081+0 0  9993
2 51638  87.5590 340.3879 0016517  31.8984  68.9877 14.22992156  3511
ONEWEB-0445             
1 51639U 22012T   22107.58334491 -.01066626  00000+0 -49462+0 0  9992
2 51639  87.5699 340.3816 0015353  18.3824 339.8561 14.24250553  3490
ONEWEB-0446             
1 51640U 22012U   22107.58334491 -.01055484  00000+0 -50144+0 0  9993
2 51640  87.5680 340.3709 0016349  30.5813 339.5507 14.22932153  3525
ONEWEB-0448             
1 51641U 22012V   22107.58334491 -.01054911  00000+0 -53492+0 0  9997
2 51641  87.5486 340.3397 0017458  22.7081  48.0887 14.19466147  3484
